{
  "type": "FeatureCollection",
  "name": "blue_ridge_hinjewadi_buildings",
  "crs": {
    "type": "name",
    "properties": {
      "name": "urn:ogc:def:crs:OGC:1.3:CRS84"
    }
  },
  "features": [
    {
      "type": "Feature",
      "properties": {
        "building_number": "BLD-BR-T05",
        "name": "Blue Ridge Tower 5 (T5)",
        "ulpin": "IN-MH-PUN-HINJ-BL-000501-9",
        "parcel_number": "PUN-HINJ-0841",
        "parcel_ulpin": "IN-MH-PUN-HINJ-PL-000841-3",
        "height_m": 76.8,
        "floor_count": 26,
        "base_elevation_m": 561.2,
        "top_elevation_m": 638.0,
        "footprint_area_sq_m": 1280.0,
        "gross_builtup_sq_m": 31200.0,
        "building_use": "Residential High-Rise (Apartments)",
        "total_units": 192,
        "construction_year": 2018,
        "confidence": 0.98,
        "status": "Verified"
      },
      "geometry": {
        "type": "Polygon",
        "coordinates": [
          [
            [73.7328, 18.5910],
            [73.7336, 18.5910],
            [73.7336, 18.5922],
            [73.7328, 18.5922],
            [73.7328, 18.5910]
          ]
        ]
      }
    },
    {
      "type": "Feature",
      "properties": {
        "building_number": "BLD-BR-T06",
        "name": "Blue Ridge Tower 6 (T6)",
        "ulpin": "IN-MH-PUN-HINJ-BL-000502-7",
        "parcel_number": "PUN-HINJ-0841",
        "parcel_ulpin": "IN-MH-PUN-HINJ-PL-000841-3",
        "height_m": 76.8,
        "floor_count": 26,
        "base_elevation_m": 561.3,
        "top_elevation_m": 638.1,
        "footprint_area_sq_m": 1280.0,
        "gross_builtup_sq_m": 31200.0,
        "building_use": "Residential High-Rise (Apartments)",
        "total_units": 192,
        "construction_year": 2019,
        "confidence": 0.96,
        "status": "Verified"
      },
      "geometry": {
        "type": "Polygon",
        "coordinates": [
          [
            [73.7342, 18.5910],
            [73.7350, 18.5910],
            [73.7350, 18.5922],
            [73.7342, 18.5922],
            [73.7342, 18.5910]
          ]
        ]
      }
    },
    {
      "type": "Feature",
      "properties": {
        "building_number": "BLD-SEZ-B01",
        "name": "Blue Ridge SEZ Tech Park - Block B1",
        "ulpin": "IN-MH-PUN-HINJ-BL-000611-4",
        "parcel_number": "PUN-HINJ-0842",
        "parcel_ulpin": "IN-MH-PUN-HINJ-PL-000842-1",
        "height_m": 48.0,
        "floor_count": 12,
        "base_elevation_m": 562.0,
        "top_elevation_m": 610.0,
        "footprint_area_sq_m": 3450.0,
        "gross_builtup_sq_m": 41400.0,
        "building_use": "Commercial IT / Office Complex",
        "total_units": 24,
        "construction_year": 2021,
        "confidence": 0.95,
        "status": "Verified"
      },
      "geometry": {
        "type": "Polygon",
        "coordinates": [
          [
            [73.7385, 18.5915],
            [73.7408, 18.5915],
            [73.7408, 18.5938],
            [73.7385, 18.5938],
            [73.7385, 18.5915]
          ]
        ]
      }
    },
    {
      "type": "Feature",
      "properties": {
        "building_number": "BLD-BR-CLUB",
        "name": "Blue Ridge Central Club & Sports Complex",
        "ulpin": "IN-MH-PUN-HINJ-BL-000508-2",
        "parcel_number": "PUN-HINJ-0841",
        "parcel_ulpin": "IN-MH-PUN-HINJ-PL-000841-3",
        "height_m": 12.5,
        "floor_count": 3,
        "base_elevation_m": 560.8,
        "top_elevation_m": 573.3,
        "footprint_area_sq_m": 2100.0,
        "gross_builtup_sq_m": 5800.0,
        "building_use": "Community Amenities / Clubhouse",
        "total_units": 1,
        "construction_year": 2017,
        "confidence": 0.99,
        "status": "Verified"
      },
      "geometry": {
        "type": "Polygon",
        "coordinates": [
          [
            [73.7330, 18.5930],
            [73.7348, 18.5930],
            [73.7348, 18.5940],
            [73.7330, 18.5940],
            [73.7330, 18.5930]
          ]
        ]
      }
    }
  ]
}